NORAD_CAT_ID,OBJECT_NAME,OBJECT_TYPE,EPOCH,MEAN_MOTION,ECCENTRICITY,INCLINATION,RA_OF_ASC_NODE,ARG_OF_PERICENTER,MEAN_ANOMALY,BSTAR,MEAN_MOTION_DOT,MEAN_MOTION_DDOT,TLE_LINE0,TLE_LINE1,TLE_LINE2,SEMIMAJOR_AXIS,PERIOD,APOGEE,PERIGEE,DECAYED
52089.0,STARLINK-3722,PAYLOAD,2023-05-13 23:54:29,15.08835114,6.26e-05,53.2156,36.0879,77.4528,282.6534,0.00020122,2.916e-05,0.0,0 STARLINK-3722,1 52089U 22029B   23133.99617952  .00002916  00000-0  20122-3 0  9997,2 52089  53.2156  36.0879 0000626  77.4528 282.6534 15.08835114 65050,6917.895,95.438,540.193,539.327,0.0
52089.0,STARLINK-3722,PAYLOAD,2023-05-14 20:34:30,15.08843208,9.72e-05,53.2176,32.2169,98.312,261.7983,3.4611e-05,2.63e-06,0.0,0 STARLINK-3722,1 52089U 22029B   23134.85729549  .00000263  00000-0  34611-4 0  9991,2 52089  53.2176  32.2169 0000972  98.3120 261.7983 15.08843208 65189,6917.871,95.437,540.408,539.063,0.0
52089.0,STARLINK-3722,PAYLOAD,2023-05-14 23:45:16,15.08847475,9.2e-05,53.2167,31.6243,78.248,281.8615,3.1505e-05,2.14e-06,0.0,0 STARLINK-3722,1 52089U 22029B   23134.98977368  .00000214  00000-0  31505-4 0  9994,2 52089  53.2167  31.6243 0000920  78.2480 281.8615 15.08847475 65202,6917.858,95.437,540.359,539.086,0.0
52089.0,STARLINK-3722,PAYLOAD,2023-05-15 22:00:40,15.08830427,0.000114,53.2183,27.4569,94.7257,265.3866,0.00031066,4.658e-05,0.0,0 STARLINK-3722,1 52089U 22029B   23135.91714102  .00004658  00000-0  31066-3 0  9990,2 52089  53.2183  27.4569 0001140  94.7257 265.3866 15.08830427 65343,6917.91,95.438,540.563,538.986,0.0
52089.0,STARLINK-3722,PAYLOAD,2023-05-16 21:51:26,15.08851046,0.0001106,53.2185,22.999,82.4169,277.6949,0.00012425,1.691e-05,0.0,0 STARLINK-3722,1 52089U 22029B   23136.91072787  .00001691  00000-0  12425-3 0  9999,2 52089  53.2185  22.9990 0001106  82.4169 277.6949 15.08851046 65495,6917.847,95.437,540.477,538.947,0.0
52089.0,STARLINK-3722,PAYLOAD,2023-05-17 02:37:35,15.08859506,0.0001148,53.2173,22.1063,79.35,280.7621,0.00024663,3.641e-05,0.0,0 STARLINK-3722,1 52089U 22029B   23137.10944201  .00003641  00000-0  24663-3 0  9994,2 52089  53.2173  22.1063 0001148  79.3500 280.7621 15.08859506 65520,6917.821,95.436,540.48,538.892,0.0
52089.0,STARLINK-3722,PAYLOAD,2023-05-17 21:42:15,15.08835469,0.0001091,53.2186,18.5394,76.1528,283.9586,-1.075e-05,-4.59e-06,0.0,0 STARLINK-3722,1 52089U 22029B   23137.90434035 -.00000459  00000-0 -10750-4 0  9990,2 52089  53.2186  18.5394 0001091  76.1528 283.9586 15.08835469 65642,6917.894,95.438,540.514,539.004,0.0
52089.0,STARLINK-3722,PAYLOAD,2023-05-18 00:53:00,15.08838256,9.73e-05,53.218,17.9451,95.0178,265.0925,2.6711e-05,1.37e-06,0.0,0 STARLINK-3722,1 52089U 22029B   23138.03681707  .00000137  00000-0  26711-4 0  9990,2 52089  53.2180  17.9451 0000973  95.0178 265.0925 15.08838256 65669,6917.886,95.438,540.424,539.078,0.0
52089.0,STARLINK-3722,PAYLOAD,2023-05-18 02:28:23,15.08839949,0.00011,53.2175,17.6473,93.9475,266.1643,-4.6591e-05,-1.029e-05,0.0,0 STARLINK-3722,1 52089U 22029B   23138.10305116 -.00001029  00000-0 -46591-4 0  9996,2 52089  53.2175  17.6473 0001100  93.9475 266.1643 15.08839949 65674,6917.881,95.438,540.507,538.985,0.0
52089.0,STARLINK-3722,PAYLOAD,2023-05-18 18:22:15,15.0883525,0.0001276,53.2175,14.6743,97.3045,262.8093,-0.00021432,-3.697e-05,0.0,0 STARLINK-3722,1 52089U 22029B   23138.76545635 -.00003697  00000-0 -21432-3 0  9999,2 52089  53.2175  14.6743 0001276  97.3045 262.8093 15.08835250 65770,6917.895,95.438,540.643,538.877,0.0
52089.0,STARLINK-3722,PAYLOAD,2023-05-19 21:23:48,15.08840843,0.0001189,53.2175,9.6182,101.5403,258.5722,0.00014847,2.076e-05,0.0,0 STARLINK-3722,1 52089U 22029B   23139.89153783  .00002076  00000-0  14847-3 0  9993,2 52089  53.2175   9.6182 0001189 101.5403 258.5722 15.08840843 65944,6917.878,95.438,540.565,538.92,0.0
52089.0,STARLINK-3722,PAYLOAD,2023-05-19 22:59:11,15.08843381,0.0001184,53.2177,9.3209,97.9612,262.1515,0.00017079,2.432e-05,0.0,0 STARLINK-3722,1 52089U 22029B   23139.95777619  .00002432  00000-0  17079-3 0  9996,2 52089  53.2177   9.3209 0001184  97.9612 262.1515 15.08843381 65950,6917.87,95.437,540.554,538.916,0.0
52089.0,STARLINK-3722,PAYLOAD,2023-05-20 21:14:35,15.08851758,0.0001083,53.2168,5.1589,90.4628,269.6489,0.00028409,4.238e-05,0.0,0 STARLINK-3722,1 52089U 22029B   23140.88513431  .00004238  00000-0  28409-3 0  9995,2 52089  53.2168   5.1589 0001083  90.4628 269.6489 15.08851758 66093,6917.844,95.437,540.459,538.96,0.0
52089.0,STARLINK-3722,PAYLOAD,2023-05-21 00:25:21,15.08860487,0.0001132,53.2169,4.5631,91.6221,268.49,0.00041016,6.249e-05,0.0,0 STARLINK-3722,1 52089U 22029B   23141.01760952  .00006249  00000-0  41016-3 0  9996,2 52089  53.2169   4.5631 0001132  91.6221 268.4900 15.08860487 66119,6917.818,95.436,540.466,538.9,0.0
52089.0,STARLINK-3722,PAYLOAD,2023-05-21 14:43:50,15.08835437,0.0001073,53.2164,1.8882,91.1702,268.9413,-7.6163e-05,-1.5e-05,0.0,0 STARLINK-3722,1 52089U 22029B   23141.61378098 -.00001500  00000-0 -76163-4 0  9997,2 52089  53.2164   1.8882 0001073  91.1702 268.9413 15.08835437 66206,6917.894,95.438,540.502,539.017,0.0
52089.0,STARLINK-3722,PAYLOAD,2023-05-21 21:05:23,15.08833253,0.0001003,53.2168,0.6978,99.8229,260.2876,-7.3593e-05,-1.459e-05,0.0,0 STARLINK-3722,1 52089U 22029B   23141.87874293 -.00001459  00000-0 -73593-4 0  9990,2 52089  53.2168   0.6978 0001003  99.8229 260.2876 15.08833253 66241,6917.901,95.438,540.46,539.072,0.0
52089.0,STARLINK-3722,PAYLOAD,2023-05-22 00:16:09,15.08835556,0.0001059,53.2169,0.1028,99.5397,260.5715,-7.1544e-06,-4.02e-06,0.0,0 STARLINK-3722,1 52089U 22029B   23142.01122285 -.00000402  00000-0 -71544-5 0  9996,2 52089  53.2169   0.1028 0001059  99.5397 260.5715 15.08835556 66262,6917.894,95.438,540.492,539.026,0.0
52089.0,STARLINK-3722,PAYLOAD,2023-05-22 20:56:10,15.0884965,9.34e-05,53.2176,356.237,95.8482,264.2617,0.00028959,4.325e-05,0.0,0 STARLINK-3722,1 52089U 22029B   23142.87233882  .00004325  00000-0  28959-3 0  9992,2 52089  53.2176 356.2370 0000934  95.8482 264.2617 15.08849650 66396,6917.851,95.437,540.362,539.07,0.0
52089.0,STARLINK-3722,PAYLOAD,2023-05-23 20:46:57,15.08838365,9.11e-05,53.2177,351.7784,90.5596,269.5501,0.00015109,2.118e-05,0.0,0 STARLINK-3722,1 52089U 22029B   23143.86594579  .00002118  00000-0  15109-3 0  9996,2 52089  53.2177 351.7784 0000911  90.5596 269.5501 15.08838365 66547,6917.885,95.438,540.381,539.12,0.0
52089.0,STARLINK-3722,PAYLOAD,2023-05-24 01:33:06,15.08842245,9.52e-05,53.2168,350.8868,91.583,268.5272,0.00017091,2.433e-05,0.0,0 STARLINK-3722,1 52089U 22029B   23144.06466426  .00002433  00000-0  17091-3 0  9990,2 52089  53.2168 350.8868 0000952  91.5830 268.5272 15.08842245 66576,6917.874,95.437,540.397,539.08,0.0
52089.0,STARLINK-3722,PAYLOAD,2023-05-24 14:16:12,15.08836775,9.42e-05,53.2166,348.5067,89.4827,270.6273,0.00015419,2.167e-05,0.0,0 STARLINK-3722,1 52089U 22029B   23144.59458691  .00002167  00000-0  15419-3 0  9999,2 52089  53.2166 348.5067 0000942  89.4827 270.6273 15.08836775 66655,6917.89,95.438,540.407,539.104,0.0
52089.0,STARLINK-3722,PAYLOAD,2023-05-25 18:53:08,15.08840529,9.8e-05,53.2165,343.1548,85.6746,274.4358,0.00011504,1.544e-05,0.0,0 STARLINK-3722,1 52089U 22029B   23145.78690679  .00001544  00000-0  11504-3 0  9994,2 52089  53.2165 343.1548 0000980  85.6746 274.4358 15.08840529 66837,6917.879,95.438,540.422,539.066,0.0
52089.0,STARLINK-3722,PAYLOAD,2023-05-25 20:28:31,15.08841576,9.75e-05,53.2165,342.8574,85.2468,274.8635,0.00013304,1.83e-05,0.0,0 STARLINK-3722,1 52089U 22029B   23145.85314620  .00001830  00000-0  13304-3 0  9999,2 52089  53.2165 342.8574 0000975  85.2468 274.8635 15.08841576 66849,6917.876,95.437,540.415,539.066,0.0
52089.0,STARLINK-3722,PAYLOAD,2023-05-26 12:22:23,15.0883973,9.34e-05,53.2165,339.8839,83.7557,276.3541,6.1635e-05,6.93e-06,0.0,0 STARLINK-3722,1 52089U 22029B   23146.51554719  .00000693  00000-0  61635-4 0  9995,2 52089  53.2165 339.8839 0000934  83.7557 276.3541 15.08839730 66949,6917.881,95.438,540.392,539.1,0.0
52089.0,STARLINK-3722,PAYLOAD,2023-05-26 20:19:18,15.08841462,9.83e-05,53.2171,338.3972,85.676,274.4345,5.7229e-05,6.23e-06,0.0,0 STARLINK-3722,1 52089U 22029B   23146.84674708  .00000623  00000-0  57229-4 0  9999,2 52089  53.2171 338.3972 0000983  85.6760 274.4345 15.08841462 66990,6917.876,95.437,540.421,539.061,0.0
52089.0,STARLINK-3722,PAYLOAD,2023-05-27 20:10:06,15.08839558,9.92e-05,53.2174,333.936,84.4217,275.6888,7.0908e-05,8.41e-06,0.0,0 STARLINK-3722,1 52089U 22029B   23147.84035191  .00000841  00000-0  70908-4 0  9998,2 52089  53.2174 333.9360 0000992  84.4217 275.6888 15.08839558 67145,6917.882,95.438,540.433,539.06,0.0
52089.0,STARLINK-3722,PAYLOAD,2023-05-27 21:45:29,15.08841166,0.0001008,53.2174,333.6385,84.5194,275.5913,8.0363e-05,9.91e-06,0.0,0 STARLINK-3722,1 52089U 22029B   23147.90659062  .00000991  00000-0  80363-4 0  9996,2 52089  53.2174 333.6385 0001008  84.5194 275.5913 15.08841166 67150,6917.877,95.437,540.439,539.045,0.0
52089.0,STARLINK-3722,PAYLOAD,2023-05-28 05:42:25,15.08841661,9.99e-05,53.2175,332.1516,84.0237,276.0869,0.00010125,1.324e-05,0.0,0 STARLINK-3722,1 52089U 22029B   23148.23779024  .00001324  00000-0  10125-3 0  9993,2 52089  53.2175 332.1516 0000999  84.0237 276.0869 15.08841661 67204,6917.875,95.437,540.431,539.049,0.0
52089.0,STARLINK-3722,PAYLOAD,2023-05-28 18:25:29,15.08849537,0.0001001,53.2173,329.7726,83.2424,276.8682,0.00015035,2.106e-05,0.0,0 STARLINK-3722,1 52089U 22029B   23148.76770379  .00002106  00000-0  15035-3 0  9999,2 52089  53.2173 329.7726 0001001  83.2424 276.8682 15.08849537 67280,6917.851,95.437,540.409,539.024,0.0
52089.0,STARLINK-3722,PAYLOAD,2023-05-29 05:33:11,15.08846115,0.0001001,53.2172,327.6913,81.2682,278.8424,0.00012584,1.716e-05,0.0,0 STARLINK-3722,1 52089U 22029B   23149.23138529  .00001716  00000-0  12584-3 0  9999,2 52089  53.2172 327.6913 0001001  81.2682 278.8424 15.08846115 67351,6917.862,95.437,540.419,539.034,0.0
